OBJECT_NAME,OBJECT_ID,EPOCH,MEAN_MOTION,ECCENTRICITY,INCLINATION,RA_OF_ASC_NODE,ARG_OF_PERICENTER,MEAN_ANOMALY,EPHEMERIS_TYPE,CLASSIFICATION_TYPE,NORAD_CAT_ID,ELEMENT_SET_NO,REV_AT_EPOCH,BSTAR,MEAN_MOTION_DOT,MEAN_MOTION_DDOT
VERTECS,2026-132E,2026-07-08T03:34:43.535136,15.00974832,.0014913,97.6833,252.6173,230.2453,129.7458,0,U,69506,999,391,.8503E-4,.1026E-4,0
HORN-R,2026-132F,2026-07-06T17:15:09.012384,15.05152725,.00195443,97.6691,251.2744,230.1940,129.7567,0,U,69507,999,370,.11331909E-3,.1557E-4,0
STARLINK-37536,2026-133A,2026-07-08T02:17:27.981600,15.49363669,.0000805,53.1597,218.7959,99.5445,260.5655,0,U,69508,999,405,.55995E-3,.30877E-3,0
STARLINK-37341,2026-133B,2026-07-08T00:00:02.000160,15.49266637,.000167,53.1598,219.2753,96.6507,80.6094,0,U,69509,999,532,.10742E-2,.59664E-3,0
STARLINK-36536,2026-133C,2026-07-08T02:00:03.000384,15.49233352,.0000819,53.1602,218.1293,48.6133,243.2059,0,U,69510,999,527,.11057E-2,.61365E-3,0
STARLINK-37420,2026-133D,2026-07-08T02:00:03.000384,15.54642506,.000035,53.1609,217.8864,123.2783,287.7780,0,U,69511,999,522,-.41274E-1,-.2424286E-1,0
STARLINK-37511,2026-133E,2026-07-08T02:00:03.000384,15.52229178,.0001064,53.1603,217.9081,83.9521,316.2164,0,U,69512,999,522,-.33203E-1,-.181699E-1,0
STARLINK-37552,2026-133F,2026-07-07T13:56:08.952288,15.49357053,.0000695,53.1595,221.2729,237.9052,122.1889,0,U,69513,999,524,.59002E-3,.32559E-3,0
STARLINK-37607,2026-133G,2026-07-08T02:00:03.000384,15.49803018,.0001635,53.1613,217.9510,45.1714,333.7506,0,U,69514,999,522,-.19994E-1,-.1030318E-1,0
STARLINK-37232,2026-133H,2026-07-08T01:43:37.415712,15.49336278,.0000638,53.1600,218.6399,55.6144,304.4926,0,U,69515,999,405,.45822E-3,.25142E-3,0
STARLINK-37323,2026-133J,2026-07-08T02:00:03.000384,15.52672423,.000133,53.1603,217.7405,67.9646,53.1083,0,U,69516,999,522,-.45414E-1,-.2524597E-1,0
STARLINK-37357,2026-133K,2026-07-07T03:04:54.909120,15.49335302,.00008951,53.1588,223.4215,100.0723,260.0387,0,U,69517,999,516,.62769551E-3,.34649E-3,0
STARLINK-37408,2026-133L,2026-07-08T02:00:03.000384,15.49315246,.0001175,53.1602,218.1193,41.6520,252.4091,0,U,69518,999,523,.77257E-3,.42764E-3,0
STARLINK-37570,2026-133M,2026-07-08T00:00:02.000160,15.49281491,.0000992,53.1601,219.0110,86.0657,217.7361,0,U,69519,999,521,.11887E-2,.66157E-3,0
STARLINK-37510,2026-133N,2026-07-08T01:40:45.299136,15.49334972,.0000868,53.1599,218.6262,101.4638,258.6469,0,U,69520,999,532,.73076E-3,.40441E-3,0
STARLINK-37586,2026-133P,2026-07-08T02:00:03.000384,15.51408101,.0001529,53.1598,217.6144,91.0819,90.5522,0,U,69521,999,523,-.48671E-1,-.2577518E-1,0
STARLINK-37379,2026-133Q,2026-07-08T02:00:03.000384,15.49300723,.0001771,53.1599,218.2517,81.7301,145.1744,0,U,69522,999,527,.73506E-3,.40634E-3,0
STARLINK-37429,2026-133R,2026-07-07T00:00:02.999808,15.49310165,.00013506,53.1597,223.8533,62.6652,29.5785,0,U,69523,999,510,.14059603E-2,.78539E-3,0
STARLINK-37352,2026-133S,2026-07-08T02:00:03.000384,15.49300686,.0001163,53.1599,218.2344,90.2745,144.3669,0,U,69524,999,528,.72366E-3,.39993E-3,0
STARLINK-37490,2026-133T,2026-07-08T02:00:03.000384,15.49299441,.0001037,53.1604,217.7678,37.8338,65.9447,0,U,69525,999,528,.89965E-3,.4989E-3,0
STARLINK-37438,2026-133U,2026-07-08T04:25:31.372896,15.49319500,.0000999,53.1597,217.9104,65.9991,294.1123,0,U,69526,999,534,.29827E-3,.16181E-3,0
STARLINK-37484,2026-133V,2026-07-08T02:00:03.000384,15.49277074,.0001623,53.1602,217.6750,111.2403,38.6285,0,U,69527,999,528,.10571E-2,.58723E-3,0
STARLINK-37523,2026-133W,2026-07-08T02:00:03.000384,15.49297008,.0001273,53.1600,218.2007,91.1996,158.8559,0,U,69528,999,528,.76485E-3,.42302E-3,0
STARLINK-37369,2026-133X,2026-07-08T02:00:03.000384,15.49316783,.0000772,53.1601,218.1593,111.6385,158.0112,0,U,69529,999,528,.76168E-3,.42154E-3,0
STARLINK-37670,2026-133Y,2026-07-08T00:00:02.000160,15.49285012,.0000863,53.1596,218.7257,88.6535,352.3709,0,U,69530,999,526,.11298E-2,.62841E-3,0
STARLINK-37897,2026-133Z,2026-07-08T02:00:03.000384,15.49288166,.0000976,53.1603,217.6522,32.1286,126.3375,0,U,69531,999,523,.85914E-3,.4759E-3,0
STARLINK-37933,2026-133AA,2026-07-08T02:00:03.000384,15.41444306,.0000895,53.1606,218.0457,79.4299,243.5881,0,U,69532,999,523,-.3611E-1,-.1396554E-1,0
STARLINK-37890,2026-133AB,2026-07-08T02:00:03.000384,15.38872621,.0001334,53.1608,217.9137,85.9546,301.3105,0,U,69533,999,523,-.84381E-1,-.2913383E-1,0
STARLINK-37407,2026-133AC,2026-07-08T02:00:03.000384,15.40597414,.0001592,53.1608,217.7587,106.4101,356.0080,0,U,69534,999,528,-.78666E-1,-.2880828E-1,0
STARLINK-37888,2026-133AD,2026-07-08T02:00:03.000384,15.38740487,.0000521,53.1614,217.8157,58.9694,14.4832,0,U,69535,999,523,-.13251E+0,-.4485782E-1,0
