VERTECS                 
1 69506U 26132E   26189.14911499  .00001026  00000+0  85030-4 0  9992
2 69506  97.6833 252.6173 0014913 230.2453 129.7458 15.00974832  3915
HORN-R                  
1 69507U 26132F   26187.71885431  .00001557  00000+0  11332-3 0  9992
2 69507  97.6691 251.2744 0019544 230.1940 129.7567 15.05152725  3704
STARLINK-37536          
1 69508U 26133A   26189.09546275  .00030877  00000+0  55995-3 0  9997
2 69508  53.1597 218.7959 0000805  99.5445 260.5655 15.49363669  4050
STARLINK-37341          
1 69509U 26133B   26189.00002315  .00059664  00000+0  10742-2 0  9996
2 69509  53.1598 219.2753 0001670  96.6507  80.6094 15.49266637  5324
STARLINK-36536          
1 69510U 26133C   26189.08336806  .00061365  00000+0  11057-2 0  9992
2 69510  53.1602 218.1293 0000819  48.6133 243.2059 15.49233352  5275
STARLINK-37420          
1 69511U 26133D   26189.08336806 -.02424286  00000+0 -41274-1 0  9995
2 69511  53.1609 217.8864 0000350 123.2783 287.7780 15.54642506  5224
STARLINK-37511          
1 69512U 26133E   26189.08336806 -.01816990  00000+0 -33203-1 0  9995
2 69512  53.1603 217.9081 0001064  83.9521 316.2164 15.52229178  5224
STARLINK-37552          
1 69513U 26133F   26188.58065917  .00032559  00000+0  59002-3 0  9997
2 69513  53.1595 221.2729 0000695 237.9052 122.1889 15.49357053  5241
STARLINK-37607          
1 69514U 26133G   26189.08336806 -.01030318  00000+0 -19994-1 0  9990
2 69514  53.1613 217.9510 0001635  45.1714 333.7506 15.49803018  5223
STARLINK-37232          
1 69515U 26133H   26189.07196083  .00025142  00000+0  45822-3 0  9998
2 69515  53.1600 218.6399 0000638  55.6144 304.4926 15.49336278  4058
STARLINK-37323          
1 69516U 26133J   26189.08336806 -.02524597  00000+0 -45414-1 0  9996
2 69516  53.1603 217.7405 0001330  67.9646  53.1083 15.52672423  5224
STARLINK-37357          
1 69517U 26133K   26188.12841330  .00034649  00000+0  62770-3 0  9990
2 69517  53.1588 223.4215 0000895 100.0723 260.0387 15.49335302  5167
STARLINK-37408          
1 69518U 26133L   26189.08336806  .00042764  00000+0  77257-3 0  9997
2 69518  53.1602 218.1193 0001175  41.6520 252.4091 15.49315246  5238
STARLINK-37570          
1 69519U 26133M   26189.00002315  .00066157  00000+0  11887-2 0  9993
2 69519  53.1601 219.0110 0000992  86.0657 217.7361 15.49281491  5213
STARLINK-37510          
1 69520U 26133N   26189.06996874  .00040441  00000+0  73076-3 0  9990
2 69520  53.1599 218.6262 0000868 101.4638 258.6469 15.49334972  5325
STARLINK-37586          
1 69521U 26133P   26189.08336806 -.02577518  00000+0 -48671-1 0  9991
2 69521  53.1598 217.6144 0001529  91.0819  90.5522 15.51408101  5235
STARLINK-37379          
1 69522U 26133Q   26189.08336806  .00040634  00000+0  73506-3 0  9999
2 69522  53.1599 218.2517 0001771  81.7301 145.1744 15.49300723  5274
STARLINK-37429          
1 69523U 26133R   26188.00003472  .00078539  00000+0  14060-2 0  9995
2 69523  53.1597 223.8533 0001350  62.6652  29.5785 15.49310165  5106
STARLINK-37352          
1 69524U 26133S   26189.08336806  .00039993  00000+0  72366-3 0  9990
2 69524  53.1599 218.2344 0001163  90.2745 144.3669 15.49300686  5282
STARLINK-37490          
1 69525U 26133T   26189.08336806  .00049890  00000+0  89965-3 0  9991
2 69525  53.1604 217.7678 0001037  37.8338  65.9447 15.49299441  5287
STARLINK-37438          
1 69526U 26133U   26189.18439089  .00016181  00000+0  29827-3 0  9998
2 69526  53.1597 217.9104 0000999  65.9991 294.1123 15.49319500  5341
STARLINK-37484          
1 69527U 26133V   26189.08336806  .00058723  00000+0  10571-2 0  9994
2 69527  53.1602 217.6750 0001623 111.2403  38.6285 15.49277074  5283
STARLINK-37523          
1 69528U 26133W   26189.08336806  .00042302  00000+0  76485-3 0  9998
2 69528  53.1600 218.2007 0001273  91.1996 158.8559 15.49297008  5286
STARLINK-37369          
1 69529U 26133X   26189.08336806  .00042154  00000+0  76168-3 0  9992
2 69529  53.1601 218.1593 0000772 111.6385 158.0112 15.49316783  5289
STARLINK-37670          
1 69530U 26133Y   26189.00002315  .00062841  00000+0  11298-2 0  9998
2 69530  53.1596 218.7257 0000863  88.6535 352.3709 15.49285012  5267
STARLINK-37897          
1 69531U 26133Z   26189.08336806  .00047590  00000+0  85914-3 0  9993
2 69531  53.1603 217.6522 0000976  32.1286 126.3375 15.49288166  5230
STARLINK-37933          
1 69532U 26133AA  26189.08336806 -.01396554  00000+0 -36110-1 0  9996
2 69532  53.1606 218.0457 0000895  79.4299 243.5881 15.41444306  5230
STARLINK-37890          
1 69533U 26133AB  26189.08336806 -.02913383  00000+0 -84381-1 0  9996
2 69533  53.1608 217.9137 0001334  85.9546 301.3105 15.38872621  5235
STARLINK-37407          
1 69534U 26133AC  26189.08336806 -.02880828  00000+0 -78666-1 0  9993
2 69534  53.1608 217.7587 0001592 106.4101 356.0080 15.40597414  5286
STARLINK-37888          
1 69535U 26133AD  26189.08336806 -.04485782  00000+0 -13251+0 0  9993
2 69535  53.1614 217.8157 0000521  58.9694  14.4832 15.38740487  5239
